<?xml version="1.0" encoding="UTF-8"?>
<ndm xmlns:xsi="http://www.w3.org/2001/XMLSchema-instance" xsi:noNamespaceSchemaLocation="https://sanaregistry.org/r/ndmxml_unqualified/ndmxml-2.0.0-master-2.0.xsd">
<omm id="CCSDS_OMM_VERS" version="2.0">
<header><CREATION_DATE/><ORIGINATOR/></header><body><segment><metadata><OBJECT_NAME>KUIPER-00133</OBJECT_NAME><OBJECT_ID>2025-217C</OBJECT_ID><CENTER_NAME>EARTH</CENTER_NAME><REF_FRAME>TEME</REF_FRAME><TIME_SYSTEM>UTC</TIME_SYSTEM><MEAN_ELEMENT_THEORY>SGP4</MEAN_ELEMENT_THEORY></metadata><data><meanElements><EPOCH>2025-11-04T20:00:03.000384</EPOCH><MEAN_MOTION>15.21052407</MEAN_MOTION><ECCENTRICITY>.0009101</ECCENTRICITY><INCLINATION>51.8764</INCLINATION><RA_OF_ASC_NODE>249.1176</RA_OF_ASC_NODE><ARG_OF_PERICENTER>267.2468</ARG_OF_PERICENTER><MEAN_ANOMALY>132.5710</MEAN_ANOMALY></meanElements><tleParameters><EPHEMERIS_TYPE>0</EPHEMERIS_TYPE><CLASSIFICATION_TYPE>U</CLASSIFICATION_TYPE><NORAD_CAT_ID>65764</NORAD_CAT_ID><ELEMENT_SET_NO>999</ELEMENT_SET_NO><REV_AT_EPOCH>591</REV_AT_EPOCH><BSTAR>-.35216E-1</BSTAR><MEAN_MOTION_DOT>-.739205E-2</MEAN_MOTION_DOT><MEAN_MOTION_DDOT>0</MEAN_MOTION_DDOT></tleParameters></data></segment></body></omm>
<omm id="CCSDS_OMM_VERS" version="2.0">
<header><CREATION_DATE/><ORIGINATOR/></header><body><segment><metadata><OBJECT_NAME>KUIPER-00139</OBJECT_NAME><OBJECT_ID>2025-217D</OBJECT_ID><CENTER_NAME>EARTH</CENTER_NAME><REF_FRAME>TEME</REF_FRAME><TIME_SYSTEM>UTC</TIME_SYSTEM><MEAN_ELEMENT_THEORY>SGP4</MEAN_ELEMENT_THEORY></metadata><data><meanElements><EPOCH>2025-11-04T20:00:03.000384</EPOCH><MEAN_MOTION>15.29398267</MEAN_MOTION><ECCENTRICITY>.0006799</ECCENTRICITY><INCLINATION>51.8699</INCLINATION><RA_OF_ASC_NODE>248.2083</RA_OF_ASC_NODE><ARG_OF_PERICENTER>239.0687</ARG_OF_PERICENTER><MEAN_ANOMALY>232.4631</MEAN_ANOMALY></meanElements><tleParameters><EPHEMERIS_TYPE>0</EPHEMERIS_TYPE><CLASSIFICATION_TYPE>U</CLASSIFICATION_TYPE><NORAD_CAT_ID>65765</NORAD_CAT_ID><ELEMENT_SET_NO>999</ELEMENT_SET_NO><REV_AT_EPOCH>492</REV_AT_EPOCH><BSTAR>.75231E-3</BSTAR><MEAN_MOTION_DOT>.21473E-3</MEAN_MOTION_DOT><MEAN_MOTION_DDOT>0</MEAN_MOTION_DDOT></tleParameters></data></segment></body></omm>
<omm id="CCSDS_OMM_VERS" version="2.0">
<header><CREATION_DATE/><ORIGINATOR/></header><body><segment><metadata><OBJECT_NAME>KUIPER-00142</OBJECT_NAME><OBJECT_ID>2025-217E</OBJECT_ID><CENTER_NAME>EARTH</CENTER_NAME><REF_FRAME>TEME</REF_FRAME><TIME_SYSTEM>UTC</TIME_SYSTEM><MEAN_ELEMENT_THEORY>SGP4</MEAN_ELEMENT_THEORY></metadata><data><meanElements><EPOCH>2025-11-04T19:58:52.997376</EPOCH><MEAN_MOTION>15.37198838</MEAN_MOTION><ECCENTRICITY>.0002945</ECCENTRICITY><INCLINATION>51.8687</INCLINATION><RA_OF_ASC_NODE>247.6813</RA_OF_ASC_NODE><ARG_OF_PERICENTER>176.8176</ARG_OF_PERICENTER><MEAN_ANOMALY>183.2830</MEAN_ANOMALY></meanElements><tleParameters><EPHEMERIS_TYPE>0</EPHEMERIS_TYPE><CLASSIFICATION_TYPE>U</CLASSIFICATION_TYPE><NORAD_CAT_ID>65766</NORAD_CAT_ID><ELEMENT_SET_NO>999</ELEMENT_SET_NO><REV_AT_EPOCH>621</REV_AT_EPOCH><BSTAR>.11241E-2</BSTAR><MEAN_MOTION_DOT>.41428E-3</MEAN_MOTION_DOT><MEAN_MOTION_DDOT>0</MEAN_MOTION_DDOT></tleParameters></data></segment></body></omm>
<omm id="CCSDS_OMM_VERS" version="2.0">
<header><CREATION_DATE/><ORIGINATOR/></header><body><segment><metadata><OBJECT_NAME>KUIPER-00145</OBJECT_NAME><OBJECT_ID>2025-217F</OBJECT_ID><CENTER_NAME>EARTH</CENTER_NAME><REF_FRAME>TEME</REF_FRAME><TIME_SYSTEM>UTC</TIME_SYSTEM><MEAN_ELEMENT_THEORY>SGP4</MEAN_ELEMENT_THEORY></metadata><data><meanElements><EPOCH>2025-11-04T07:37:36.986880</EPOCH><MEAN_MOTION>15.36788445</MEAN_MOTION><ECCENTRICITY>.00028869</ECCENTRICITY><INCLINATION>51.8718</INCLINATION><RA_OF_ASC_NODE>250.2335</RA_OF_ASC_NODE><ARG_OF_PERICENTER>210.4043</ARG_OF_PERICENTER><MEAN_ANOMALY>149.6777</MEAN_ANOMALY></meanElements><tleParameters><EPHEMERIS_TYPE>0</EPHEMERIS_TYPE><CLASSIFICATION_TYPE>U</CLASSIFICATION_TYPE><NORAD_CAT_ID>65767</NORAD_CAT_ID><ELEMENT_SET_NO>999</ELEMENT_SET_NO><REV_AT_EPOCH>613</REV_AT_EPOCH><BSTAR>.67516909E-3</BSTAR><MEAN_MOTION_DOT>.24342E-3</MEAN_MOTION_DOT><MEAN_MOTION_DDOT>0</MEAN_MOTION_DDOT></tleParameters></data></segment></body></omm>
<omm id="CCSDS_OMM_VERS" version="2.0">
<header><CREATION_DATE/><ORIGINATOR/></header><body><segment><metadata><OBJECT_NAME>KUIPER-00147</OBJECT_NAME><OBJECT_ID>2025-217G</OBJECT_ID><CENTER_NAME>EARTH</CENTER_NAME><REF_FRAME>TEME</REF_FRAME><TIME_SYSTEM>UTC</TIME_SYSTEM><MEAN_ELEMENT_THEORY>SGP4</MEAN_ELEMENT_THEORY></metadata><data><meanElements><EPOCH>2025-11-04T20:40:46.670592</EPOCH><MEAN_MOTION>15.35834235</MEAN_MOTION><ECCENTRICITY>.0005873</ECCENTRICITY><INCLINATION>51.8655</INCLINATION><RA_OF_ASC_NODE>247.8558</RA_OF_ASC_NODE><ARG_OF_PERICENTER>235.8019</ARG_OF_PERICENTER><MEAN_ANOMALY>124.2411</MEAN_ANOMALY></meanElements><tleParameters><EPHEMERIS_TYPE>0</EPHEMERIS_TYPE><CLASSIFICATION_TYPE>U</CLASSIFICATION_TYPE><NORAD_CAT_ID>65768</NORAD_CAT_ID><ELEMENT_SET_NO>999</ELEMENT_SET_NO><REV_AT_EPOCH>621</REV_AT_EPOCH><BSTAR>.10988E-2</BSTAR><MEAN_MOTION_DOT>.38734E-3</MEAN_MOTION_DOT><MEAN_MOTION_DDOT>0</MEAN_MOTION_DDOT></tleParameters></data></segment></body></omm>
<omm id="CCSDS_OMM_VERS" version="2.0">
<header><CREATION_DATE/><ORIGINATOR/></header><body><segment><metadata><OBJECT_NAME>KUIPER-00148</OBJECT_NAME><OBJECT_ID>2025-217H</OBJECT_ID><CENTER_NAME>EARTH</CENTER_NAME><REF_FRAME>TEME</REF_FRAME><TIME_SYSTEM>UTC</TIME_SYSTEM><MEAN_ELEMENT_THEORY>SGP4</MEAN_ELEMENT_THEORY></metadata><data><meanElements><EPOCH>2025-11-04T10:11:59.899776</EPOCH><MEAN_MOTION>15.35152335</MEAN_MOTION><ECCENTRICITY>.0008804</ECCENTRICITY><INCLINATION>51.8617</INCLINATION><RA_OF_ASC_NODE>250.1586</RA_OF_ASC_NODE><ARG_OF_PERICENTER>252.3734</ARG_OF_PERICENTER><MEAN_ANOMALY>107.6290</MEAN_ANOMALY></meanElements><tleParameters><EPHEMERIS_TYPE>0</EPHEMERIS_TYPE><CLASSIFICATION_TYPE>U</CLASSIFICATION_TYPE><NORAD_CAT_ID>65769</NORAD_CAT_ID><ELEMENT_SET_NO>999</ELEMENT_SET_NO><REV_AT_EPOCH>614</REV_AT_EPOCH><BSTAR>.77152576E-3</BSTAR><MEAN_MOTION_DOT>.26466E-3</MEAN_MOTION_DOT><MEAN_MOTION_DDOT>0</MEAN_MOTION_DDOT></tleParameters></data></segment></body></omm>
<omm id="CCSDS_OMM_VERS" version="2.0">
<header><CREATION_DATE/><ORIGINATOR/></header><body><segment><metadata><OBJECT_NAME>KUIPER-00150</OBJECT_NAME><OBJECT_ID>2025-217J</OBJECT_ID><CENTER_NAME>EARTH</CENTER_NAME><REF_FRAME>TEME</REF_FRAME><TIME_SYSTEM>UTC</TIME_SYSTEM><MEAN_ELEMENT_THEORY>SGP4</MEAN_ELEMENT_THEORY></metadata><data><meanElements><EPOCH>2025-11-04T20:00:03.000384</EPOCH><MEAN_MOTION>15.24767936</MEAN_MOTION><ECCENTRICITY>.0008537</ECCENTRICITY><INCLINATION>51.8651</INCLINATION><RA_OF_ASC_NODE>248.6169</RA_OF_ASC_NODE><ARG_OF_PERICENTER>248.0000</ARG_OF_PERICENTER><MEAN_ANOMALY>349.4119</MEAN_ANOMALY></meanElements><tleParameters><EPHEMERIS_TYPE>0</EPHEMERIS_TYPE><CLASSIFICATION_TYPE>U</CLASSIFICATION_TYPE><NORAD_CAT_ID>65770</NORAD_CAT_ID><ELEMENT_SET_NO>999</ELEMENT_SET_NO><REV_AT_EPOCH>576</REV_AT_EPOCH><BSTAR>-.33526E-1</BSTAR><MEAN_MOTION_DOT>-.782682E-2</MEAN_MOTION_DOT><MEAN_MOTION_DDOT>0</MEAN_MOTION_DDOT></tleParameters></data></segment></body></omm>
<omm id="CCSDS_OMM_VERS" version="2.0">
<header><CREATION_DATE/><ORIGINATOR/></header><body><segment><metadata><OBJECT_NAME>KUIPER-00151</OBJECT_NAME><OBJECT_ID>2025-217K</OBJECT_ID><CENTER_NAME>EARTH</CENTER_NAME><REF_FRAME>TEME</REF_FRAME><TIME_SYSTEM>UTC</TIME_SYSTEM><MEAN_ELEMENT_THEORY>SGP4</MEAN_ELEMENT_THEORY></metadata><data><meanElements><EPOCH>2025-11-04T10:51:02.472480</EPOCH><MEAN_MOTION>15.36826899</MEAN_MOTION><ECCENTRICITY>.00041441</ECCENTRICITY><INCLINATION>51.8702</INCLINATION><RA_OF_ASC_NODE>249.6291</RA_OF_ASC_NODE><ARG_OF_PERICENTER>208.6947</ARG_OF_PERICENTER><MEAN_ANOMALY>151.3812</MEAN_ANOMALY></meanElements><tleParameters><EPHEMERIS_TYPE>0</EPHEMERIS_TYPE><CLASSIFICATION_TYPE>U</CLASSIFICATION_TYPE><NORAD_CAT_ID>65771</NORAD_CAT_ID><ELEMENT_SET_NO>999</ELEMENT_SET_NO><REV_AT_EPOCH>615</REV_AT_EPOCH><BSTAR>.11015668E-2</BSTAR><MEAN_MOTION_DOT>.401E-3</MEAN_MOTION_DOT><MEAN_MOTION_DDOT>0</MEAN_MOTION_DDOT></tleParameters></data></segment></body></omm>

</ndm>
