KUIPER-00133            
1 65764U 25217C   25308.83336806 -.00739205  00000+0 -35216-1 0  9995
2 65764  51.8764 249.1176 0009101 267.2468 132.5710 15.21052407  5918
KUIPER-00139            
1 65765U 25217D   25308.83336806  .00021473  00000+0  75231-3 0  9998
2 65765  51.8699 248.2083 0006799 239.0687 232.4631 15.29398267  4920
KUIPER-00142            
1 65766U 25217E   25308.83255784  .00041428  00000+0  11241-2 0  9996
2 65766  51.8687 247.6813 0002945 176.8176 183.2830 15.37198838  6211
KUIPER-00145            
1 65767U 25217F   25308.31778920  .00024342  00000+0  67517-3 0  9996
2 65767  51.8718 250.2335 0002886 210.4043 149.6777 15.36788445  6133
KUIPER-00147            
1 65768U 25217G   25308.86165128  .00038734  00000+0  10988-2 0  9996
2 65768  51.8655 247.8558 0005873 235.8019 124.2411 15.35834235  6217
KUIPER-00148            
1 65769U 25217H   25308.42499884  .00026466  00000+0  77153-3 0  9995
2 65769  51.8617 250.1586 0008804 252.3734 107.6290 15.35152335  6145
KUIPER-00150            
1 65770U 25217J   25308.83336806 -.00782682  00000+0 -33526-1 0  9991
2 65770  51.8651 248.6169 0008537 248.0000 349.4119 15.24767936  5765
KUIPER-00151            
1 65771U 25217K   25308.45211195  .00040100  00000+0  11016-2 0  9994
2 65771  51.8702 249.6291 0004144 208.6947 151.3812 15.36826899  6153
